EVENT_NAME: 202001241755
EVENT_ID: 8178
EVENT_DATE_YYYYMMDD: 2020/01/24
EVENT_TIME_HHMMSS: 17:55:11.00000
EVENT_LATITUDE_DEGREE: 38.2222
EVENT_LONGITUDE_DEGREE: 30.2222
EVENT_DEPTH_KM: 8.06
HYPOCENTER_REFERENCE: AFAD
MAGNITUDE_W: 6.8
MAGNITUDE_W_REFERENCE: AFAD
MAGNITUDE_L: 
MAGNITUDE_L_REFERENCE: 
FOCAL_MECHANISM: 
NETWORK: TK
STATION_CODE: 2308
STATION_NAME: 
STATION_LATITUDE_DEGREE: 38.7777
STATION_LONGITUDE_DEGREE: 39.7777
STATION_ELEVATION_M: 1248.0
LOCATION: Elazig_Sivrice_Turkiye
SENSOR_DEPTH_M: 
VS30_M/S: 450
SITE_CLASSIFICATION_EC8: B
MORPHOLOGIC_CLASSIFICATION: 
EPICENTRAL_DISTANCE_KM: 23.81
EARTHQUAKE_BACKAZIMUTH_DEGREE: 
DATE_TIME_FIRST_SAMPLE_YYYYMMDD_HHMMSS: 2020/01/24 17:54:45.33222000
DATE_TIME_FIRST_SAMPLE_PRECISION: millisecond
SAMPLING_INTERVAL_S: 0.01
NDATA: 5551
DURATION_S: 
STREAM: HNZ
UNITS: cm/s^2
INSTRUMENT: sensor = CMG-5T/GURALP | digitizer = 
INSTRUMENT_ANALOG/DIGITAL: 
INSTRUMENTAL_FREQUENCY_HZ: 
INSTRUMENTAL_DAMPING: 
FULL_SCALE_G: 
N_BIT_DIGITAL_CONVERTER: 
PGA_CM/S^2: 178.577
TIME_PGA_S: 
BASELINE_CORRECTION: BASELINE REMOVED
FILTER_TYPE: BUTTERWORTH
FILTER_ORDER: 2
LOW_CUT_FREQUENCY_HZ: 0.1
HIGH_CUT_FREQUENCY_HZ: 25.0
LATE/NORMAL_TRIGGERED: NT
DATABASE_VERSION: 
HEADER_FORMAT: DYNA 1.2
DATA_TYPE: Acceleration
PROCESSING: Manual Paolucci et al., 2011
DATA_TIMESTAMP_YYYYMMDD_HHMMSS: 
DATA_LICENSE: U (unknown license)
DATA_CITATION: Turkish Accelerometric Archive v 1.0 - Disaster And Emergency Management Presidency, Earthquake Department
DATA_CREATOR: AFAD
ORIGINAL_DATA_MEDIATOR_CITATION: : AFAD - Disaster And Emergency Management Presidency
ORIGINAL_DATA_MEDIATOR: AFAD PROCESS SERVICE
ORIGINAL_DATA_CREATOR_CITATION: AFAD PROCESS SERVICE
ORIGINAL_DATA_CREATOR: network: TK
USER1: GuestUser
USER2: 
USER3: 
USER4: 
USER5: 
-9.764531
-8.304752
-7.744179
-7.917989
-6.070438
-1.581508
2.620502
4.791270
6.530230
9.366938
12.350906
14.110661
14.830083
14.694301
12.550788
7.973111
3.729102
4.400953
11.226889
19.796018
25.070952
26.043432
23.717731
18.982648
13.905735
11.254091
12.257364
16.567315
23.210218
30.674721
37.278072
41.778216
43.241795
40.730187
33.739615
23.232343
11.933218
3.312781
0.060283
2.261313
6.872853
10.558243
12.299964
12.023212
8.816338
2.315530
-5.318948
-10.682387
-12.623337
-12.848623
-12.815767
-11.855135
-9.117983
-6.369832
-6.579316
-9.467305
-11.992847
-13.032550
-13.515204
-13.551455
-12.773642
-11.523425
-9.987250
-7.525913
-3.791676
0.059059
2.260584
1.879596
-1.150082
-5.513735
-8.407118
-8.204983
-6.326474
-5.724760
-7.890168
-10.515229
-9.975438
-7.096771
-5.814232
-5.956008
-3.842342
0.124065
1.119932
-2.587110
-7.525152
-10.951090
-13.601193
-15.792521
-15.918756
-13.763257
-11.495244
-10.996035
-12.108060
-13.500075
-14.208345
-13.323956
-9.801123
-4.892897
-2.227861
-3.464618
-6.436909
-8.472083
-9.559476
-10.779954
-11.104640
-8.751456
-4.109664
0.905750
3.613648
1.238697
-5.158243
-9.424987
-6.158229
3.672025
13.841586
18.956074
18.706035
15.290312
9.570714
2.944762
-0.937978
0.001035
3.805176
7.754688
11.458105
15.182621
17.760610
18.507729
18.611579
18.540478
16.743590
12.370612
7.465190
4.987412
5.537882
7.843553
10.909395
13.410951
13.215678
9.733984
5.488155
3.870062
5.493755
7.764752
7.928637
6.006708
4.895244
6.878023
10.469299
12.359108
11.248958
8.086100
4.025084
0.200969
-1.650063
-1.345208
-1.992480
-6.460838
-13.267491
-17.740841
-16.767867
-12.165395
-8.480479
-7.822566
-9.013751
-10.323191
-10.805416
-10.627042
-11.006393
-12.857677
-15.448949
-16.886464
-16.116846
-13.357677
-8.554302
-2.488919
0.814624
-2.625203
-10.923318
-17.903211
-20.117815
-18.798564
-16.513185
-15.305985
-16.116715
-17.697514
-17.455130
-14.253479
-9.989889
-8.004024
-9.444790
-12.045184
-13.714803
-15.197998
-17.233986
-18.676126
-19.214501
-19.934126
-20.199609
-17.107643
-9.498668
-1.488295
0.451258
-5.376200
-13.627419
-17.623296
-15.863884
-11.686238
-8.589208
-8.209026
-10.468279
-13.331701
-14.038949
-12.036029
-9.589917
-8.203771
-6.552317
-4.024911
-2.714053
-3.729464
-5.012095
-3.754340
0.858321
7.064645
12.390592
15.995401
18.051066
18.150092
16.755544
16.026661
16.605043
16.260941
13.551026
10.124735
8.342297
8.850963
11.081478
13.975374
15.826973
15.875384
16.086440
18.458157
21.310983
21.511422
19.016065
16.452553
15.884461
17.552956
20.176451
21.855243
21.723123
20.836017
20.863043
21.869402
21.911939
19.260139
14.656079
10.684414
9.395128
11.184256
14.765092
17.408081
16.694662
12.871066
8.611893
6.303650
6.153687
6.719960
6.655952
5.881955
4.958821
3.596901
1.374583
0.037389
2.446570
8.545666
14.690903
17.345175
15.469858
9.700703
1.785883
-5.225153
-8.525722
-7.522171
-3.586773
1.444643
6.085221
8.778462
7.445634
1.016311
-8.430484
-16.608171
-20.788670
-21.722727
-20.909505
-17.791853
-12.133584
-6.825423
-4.988846
-6.034213
-7.115239
-7.485175
-9.146596
-12.674266
-14.804381
-12.108209
-4.936385
3.969339
12.150090
17.116122
16.238400
9.337553
-0.002056
-7.391279
-11.150827
-12.023968
-10.596497
-6.681305
-1.107718
3.613948
5.055820
2.347450
-3.845302
-11.273580
-16.157702
-15.227387
-8.925633
-1.637285
2.649799
3.936469
3.904332
2.244663
-1.373884
-3.787223
-1.271427
4.852798
8.930955
6.563204
-2.115560
-12.899603
-20.307356
-21.536772
-17.795180
-11.792697
-5.834732
-1.951375
-1.041065
-1.805052
-2.609900
-3.663177
-5.389119
-6.360769
-4.967082
-1.558859
2.037815
3.998722
3.776345
2.252251
0.208694
-2.070749
-3.279949
-1.586820
2.585571
6.198918
6.608782
3.856176
0.094057
-2.010612
-0.702375
3.423228
7.776993
10.442907
11.426414
11.419147
10.969833
10.182971
8.552677
6.546434
6.570524
10.154157
15.507576
19.623008
20.933835
18.866873
13.496975
7.141518
3.803215
5.174630
8.741250
10.900668
10.433319
8.321234
5.599329
2.193554
-2.162563
-6.317964
-8.088669
-6.407261
-2.523127
0.814936
1.372359
-1.178136
-5.712319
-10.569428
-13.698730
-13.368677
-9.847866
-5.841387
-4.532180
-7.064753
-11.810281
-15.963179
-17.765156
-17.025589
-14.357918
-11.213703
-9.985032
-12.454748
-17.921709
-23.257144
-25.130230
-22.641275
-17.795595
-13.495587
-11.655369
-12.742916
-15.667504
-18.006490
-17.518827
-14.014421
-9.369055
-5.339897
-2.094118
0.318573
0.526368
-2.448040
-7.494616
-12.846711
-17.351730
-19.500065
-17.789881
-13.111813
-8.639320
-6.427363
-5.796799
-5.903782
-7.690466
-11.515512
-14.770701
-13.982224
-8.648658
-1.819006
2.856833
3.551552
0.300872
-4.967422
-8.183070
-5.809093
0.853298
6.286788
6.890875
4.410337
2.715846
3.377663
5.074684
5.969524
5.704486
5.269069
5.531819
6.377273
7.422492
8.636238
9.317340
8.129629
5.837716
5.685362
9.216316
14.237765
17.497456
16.760780
11.539491
4.548814
0.480516
1.013946
2.934725
2.980627
2.319213
3.903739
7.295826
8.740684
5.793343
0.358504
-3.276804
-3.182116
-1.145925
1.388102
5.652614
11.581051
15.431400
14.670644
11.670270
9.647270
8.252578
5.756867
3.023636
2.835896
6.238812
11.301336
15.434638
17.412756
17.053729
14.757358
11.516695
8.225947
5.302474
2.862416
0.632706
-1.107118
-0.842728
1.874059
4.962949
6.478769
6.547991
5.418287
2.102313
-3.095162
-6.829135
-6.246162
-2.458138
1.946789
6.442067
11.139227
14.384138
14.681582
13.196253
12.001289
11.429507
10.582486
8.935895
6.462087
3.425315
1.043291
1.075236
3.626403
6.688414
8.518819
9.137880
9.243965
8.495071
5.362752
-0.897537
-8.542420
-14.020654
-13.969359
-7.460015
2.563600
10.724769
12.939149
9.324494
3.616874
-0.513254
-1.725629
-0.360279
1.772258
1.941147
-0.512141
-3.114946
-3.742936
-2.991724
-1.926655
0.014637
3.521176
7.754208
11.275694
13.523216
14.766649
14.982539
13.285988
9.173363
4.397403
2.246371
3.913436
6.875264
7.951423
6.186452
2.094850
-3.416046
-8.583965
-10.987943
-9.103590
-3.703251
2.154243
4.853928
3.012994
-1.204358
-4.588497
-6.461319
-8.636142
-12.485127
-17.214871
-20.799032
-21.685557
-19.582939
-15.958825
-13.957784
-15.767808
-19.536598
-20.908387
-18.198107
-14.321796
-13.084352
-15.071733
-17.862703
-19.236669
-19.256300
-19.217269
-19.356422
-18.679337
-16.840195
-14.688110
-12.923618
-11.823521
-11.870970
-12.757685
-12.832356
-11.589663
-10.887482
-11.378356
-10.309776
-5.941872
-1.053108
1.357057
2.010642
2.254127
1.846756
1.876639
5.161034
11.993220
18.736048
21.937714
21.665613
19.754642
17.029963
13.821742
11.137868
9.413574
7.418738
3.851828
-0.539247
-3.315184
-3.228150
-2.103870
-2.585019
-4.988749
-7.832059
-9.716692
-9.688975
-7.896668
-6.396436
-7.462120
-10.848988
-13.922918
-14.652478
-13.624931
-12.611157
-11.890700
-10.223070
-7.152290
-4.059408
-2.725408
-2.992040
-2.153316
1.874704
6.996382
9.241860
8.266505
7.135357
7.244583
7.267579
6.538246
5.744319
5.095622
4.975456
6.597667
9.410076
10.268525
7.158276
1.907084
-1.966099
-3.112039
-3.155349
-4.051925
-5.723283
-6.725404
-6.397651
-5.032008
-2.625675
0.712019
4.175953
7.414402
10.476152
12.222459
11.064948
7.480236
3.981683
2.447675
2.835388
4.361379
6.236586
7.115000
5.475084
1.357725
-2.891525
-4.372849
-2.279006
1.409152
4.018520
4.852496
5.369352
6.791657
8.618033
10.077738
11.526526
13.046717
13.405201
12.088220
10.823447
11.621224
14.139758
16.122077
16.246228
15.075016
12.990336
9.305420
4.225596
0.027555
-0.821452
1.837960
6.035429
9.796107
11.937544
11.471609
8.177130
3.940715
1.698431
2.252661
3.585924
3.799843
3.049872
2.216477
1.211250
-0.776948
-4.011834
-7.607809
-9.999104
-10.094409
-8.430571
-6.913682
-6.751682
-6.828200
-4.846550
-0.223425
4.697490
6.697601
4.918518
1.704482
0.107811
1.466508
5.231053
9.145026
10.066895
6.842369
1.833286
-1.403923
-1.283029
0.987234
3.160010
3.892509
2.560734
-1.198851
-6.393939
-10.705915
-12.665081
-12.815750
-12.440488
-11.821271
-10.456482
-8.743786
-7.927662
-8.231472
-8.558372
-8.063835
-6.954841
-5.914170
-5.453712
-5.544001
-5.440238
-4.459121
-2.855988
-0.922993
1.822083
5.132655
7.253129
7.006141
5.269460
3.655882
2.850519
2.547237
2.203919
1.630678
1.173481
1.320491
2.331240
4.554288
8.248627
12.497893
15.277683
15.199880
12.885856
10.299657
8.494532
6.428110
2.627341
-2.262697
-5.514357
-5.339130
-2.867330
-0.312651
1.311174
1.727611
0.716081
-0.992308
-2.005158
-2.210324
-2.690483
-3.746270
-4.953623
-6.236523
-6.974858
-5.971995
-3.823650
-2.661963
-2.553818
-1.238444
1.905285
4.775736
5.830291
5.696748
5.258082
4.089226
1.349336
-2.339227
-4.568584
-3.366211
0.492797
4.216405
5.725879
4.731158
1.753896
-2.420458
-6.590928
-9.712799
-11.517460
-12.062456
-11.327048
-9.698735
-8.427788
-9.115531
-12.251328
-16.611738
-20.671765
-23.387102
-23.455069
-20.168163
-15.247091
-11.974564
-12.146371
-14.366896
-15.680244
-14.846749
-13.177663
-12.197523
-11.842431
-11.136347
-9.601607
-7.828930
-6.943301
-7.236473
-7.614711
-7.030692
-5.744805
-4.558906
-3.823804
-3.532663
-3.464350
-3.407932
-3.699664
-4.715340
-5.927482
-6.567406
-6.453440
-5.343610
-2.932175
-0.005798
1.863981
2.101297
1.616658
1.361726
1.431011
2.015289
3.933521
7.450668
11.391328
13.722680
13.051375
10.033611
6.922741
5.601773
6.643297
9.507130
13.031050
16.369770
19.067661
20.131607
18.552075
14.968012
11.773200
11.340571
14.161687
18.419565
21.251603
20.971515
18.530988
16.229972
15.118388
14.690212
14.274869
13.486568
12.218822
10.947070
10.295660
9.923380
8.443731
4.909439
0.048509
-4.272806
-6.674382
-7.292041
-7.243111
-7.332248
-7.509653
-7.231638
-6.190508
-4.988002
-4.939744
-6.890219
-10.163573
-12.861777
-13.542431
-12.408608
-10.592570
-8.958840
-7.966018
-8.055303
-9.659050
-12.526799
-15.196623
-15.865667
-13.761563
-9.588408
-5.295278
-2.915715
-2.972851
-4.724522
-7.507240
-10.691529
-13.119403
-13.565334
-11.593070
-7.908593
-4.006563
-1.362094
-0.527391
-0.784546
-1.056753
-1.012679
-0.835254
-0.587242
-0.365890
-0.339040
-0.182678
0.802547
2.498818
3.576118
3.158702
2.415487
3.380237
6.379807
9.705246
11.795436
12.754364
13.653926
15.295963
17.795675
20.507319
22.129097
21.545572
19.061344
16.549836
15.646585
15.852233
15.309802
13.193036
10.270642
7.530335
5.421664
4.291029
4.430656
5.440960
6.392947
6.806869
6.812027
6.498629
5.682719
4.248469
2.645259
1.904757
2.713613
4.540451
6.023397
6.036963
4.361670
1.734781
-0.764736
-2.477473
-3.160317
-2.812200
-2.076552
-2.098543
-3.379184
-5.190796
-6.401609
-6.674247
-6.677086
-7.142947
-8.002989
-8.650543
-8.775419
-8.528236
-7.956596
-6.845675
-5.328798
-4.044748
-3.341573
-2.962276
-2.671259
-2.416437
-1.963771
-1.174386
-0.430226
-0.144051
-0.079207
0.351072
1.234724
1.926472
1.590688
-0.114837
-2.755510
-5.388743
-7.026856
-7.053249
-5.569734
-3.218396
-0.654080
1.440093
2.204570
1.257347
-0.626972
-2.161522
-2.729431
-2.250552
-0.506517
2.273762
4.925449
6.534760
7.372063
7.971044
8.068633
7.092199
5.284590
3.778227
3.498581
4.204699
4.685619
3.897869
1.938200
-0.139301
-1.353928
-1.425041
-0.705860
-0.009645
-0.146541
-1.205936
-2.745583
-4.681508
-7.134319
-9.396034
-10.047710
-8.577200
-6.280367
-5.039844
-5.713939
-7.848247
-10.117482
-11.146578
-10.645498
-9.550648
-8.821693
-8.311620
-7.073694
-5.033632
-3.544643
-3.447401
-3.893263
-3.931886
-3.704902
-3.382532
-2.340264
-0.282132
1.873403
3.124371
3.372889
2.944233
2.264383
1.910771
2.382295
3.787052
5.516556
6.633453
6.787839
6.078013
4.571735
2.749502
1.664540
2.130750
3.897426
5.578023
5.614264
3.602832
0.576352
-1.976360
-3.119281
-2.689037
-1.137346
0.690044
2.094251
2.894306
3.100519
2.648864
1.690845
0.780521
0.408177
0.455891
0.656226
1.314247
2.771859
4.642494
6.193170
7.043427
7.252959
6.871901
5.809109
4.391257
3.163658
1.963691
0.521769
-0.220094
0.956256
3.436874
5.232484
5.500785
5.136832
5.074161
5.229174
5.094773
4.852429
5.314969
6.598604
7.666892
7.417430
5.835856
4.006550
3.024650
3.211799
4.127536
4.746872
4.190464
2.539371
0.417271
-1.720462
-3.396557
-4.091586
-3.994184
-4.064425
-4.850900
-5.874782
-6.639282
-7.500939
-8.902824
-10.398398
-11.130371
-10.922846
-10.355735
-9.905713
-9.642120
-9.702612
-10.139165
-10.367355
-9.732144
-8.517778
-7.651663
-7.313148
-6.559224
-4.863743
-3.129582
-2.489570
-3.017537
-3.933736
-4.417093
-4.196217
-3.571293
-2.981163
-2.594219
-2.105836
-1.220499
-0.468231
-0.647357
-1.496337
-2.015307
-1.720302
-0.667008
1.040343
3.058499
4.803315
5.998101
6.782380
7.304501
7.600378
7.800108
7.996019
7.834508
6.884536
5.624797
5.275325
6.366892
8.114699
9.317092
9.342429
8.233020
6.384762
4.339692
2.593164
1.326854
0.530992
0.516646
1.652856
3.250445
3.600673
1.806151
-1.055314
-3.197102
-3.893928
-3.508573
-2.699176
-2.126587
-2.266408
-3.241388
-4.966659
-7.244820
-9.537775
-10.884939
-10.625195
-9.234882
-7.939727
-7.586062
-8.180077
-9.331735
-10.840424
-12.714927
-14.829503
-16.694906
-17.560002
-17.173809
-16.326750
-15.855180
-15.663791
-15.516225
-15.677169
-16.083176
-15.986506
-14.831090
-12.867413
-10.735988
-8.761136
-6.971237
-5.472359
-4.384335
-3.766702
-3.559044
-3.359915
-2.861747
-2.410591
-2.305973
-1.981409
-0.794021
1.003360
3.009711
5.476918
8.317575
10.300641
10.398960
9.349843
8.822479
9.464204
10.826822
12.427486
13.773065
14.445703
14.751383
15.247254
15.820287
15.903427
15.231736
14.102686
13.078018
12.777499
13.707990
15.635041
17.582556
18.812645
19.102911
18.290894
16.493724
14.621102
13.864492
14.497902
15.574443
15.785125
14.359674
11.547902
8.574388
6.669092
6.042340
6.194651
6.725143
7.253342
7.222633
6.328044
4.803256
3.209818
2.137031
1.948970
2.456459
2.824117
2.229848
0.657034
-1.231749
-2.832849
-4.078138
-5.282437
-6.607401
-7.937289
-9.227444
-10.559254
-11.911587
-13.142146
-14.115489
-14.783803
-15.318811
-16.114900
-17.255326
-18.141756
-18.189924
-17.510205
-16.493423
-15.324282
-14.152446
-13.151664
-12.325506
-11.751885
-11.696688
-11.864730
-11.290937
-9.678142
-8.038518
-7.604810
-8.662455
-10.508404
-12.193968
-13.101393
-12.902803
-11.499149
-9.373860
-7.548403
-6.515969
-5.652981
-4.427445
-3.316356
-2.731666
-2.291227
-1.761935
-1.378976
-0.974773
-0.015115
1.467800
2.836004
3.608567
3.819335
3.852856
4.050106
4.340812
4.544187
4.948211
5.932106
7.291050
8.603041
9.728425
10.410149
10.139207
9.034407
8.121867
8.097262
8.551068
8.857238
8.868700
8.546442
7.978852
7.717017
8.144639
8.820209
9.226443
9.652209
10.477659
11.136801
10.843060
9.900482
9.269711
9.314389
9.753446
10.277679
10.624108
10.408382
9.438481
8.185913
7.335195
6.858330
6.294050
5.618958
4.885924
3.698859
2.183112
1.514030
2.318501
3.663372
4.454385
4.529161
3.919357
2.411974
0.301375
-1.350998
-1.693950
-0.920862
0.179051
1.125862
1.898817
2.548778
2.942571
2.801995
2.075454
1.211065
0.733129
0.687766
0.727304
0.477050
-0.137456
-0.755482
-1.064967
-1.242377
-1.549121
-1.923210
-2.186454
-2.313123
-2.446253
-2.768032
-3.380803
-4.176110
-4.695332
-4.468539
-3.596361
-2.586665
-1.857083
-1.717505
-2.213484
-2.810544
-2.915462
-2.662369
-2.639399
-3.054289
-3.602600
-3.860676
-3.496722
-2.506856
-1.387235
-0.665704
-0.394299
-0.381652
-0.500607
-0.549682
-0.388854
-0.292760
-0.483571
-0.613068
-0.458536
-0.389550
-0.547378
-0.515758
-0.087988
-10.779514
-5.948228
-1.233340
3.214267
6.569412
7.056259
4.340229
0.131028
-3.935701
-7.239706
-8.966824
-8.278644
-6.033237
-4.251280
-4.088189
-5.743298
-8.944067
-12.152306
-12.803587
-9.685043
-4.291234
0.854916
4.079613
4.243280
0.611867
-5.595882
-11.188350
-13.731690
-12.924577
-9.137630
-3.184979
2.337696
4.708158
4.284050
3.245938
1.882942
-0.744398
-3.602401
-4.514014
-3.286083
-1.474513
-0.125287
0.683073
1.123032
1.074214
-0.050829
-2.328258
-4.173949
-3.321004
0.782708
6.083768
9.591178
9.778466
7.356346
4.030763
1.032230
-0.972779
-1.472929
-0.492593
1.409005
3.984198
7.050587
9.323214
8.998990
6.173776
3.281778
1.856370
0.860236
-0.032306
1.181458
5.188897
9.716884
12.378780
12.106740
8.565912
2.485135
-4.222258
-9.200413
-10.676905
-8.998648
-6.467517
-4.664058
-3.380452
-2.485937
-2.787357
-4.382615
-6.062083
-7.240674
-8.439839
-9.352458
-8.881629
-7.228212
-5.827233
-5.081692
-3.742537
-1.267520
0.730647
0.655766
-0.952059
-2.527664
-3.621679
-4.940825
-6.553919
-7.507794
-7.406587
-6.848270
-6.590789
-7.137309
-8.165000
-8.770071
-8.842842
-8.286465
-6.105621
-2.977608
-1.664313
-2.887929
-4.380784
-4.779712
-5.169453
-6.067818
-6.164249
-5.390044
-5.797568
-8.021894
-9.628665
-8.035431
-3.818611
0.236736
2.964516
5.262358
7.071754
6.856676
4.333967
1.973292
2.289593
4.170052
4.691097
3.911448
4.408014
6.858924
9.047789
9.283024
8.363241
7.387435
6.428873
5.851843
6.233849
7.270684
7.946587
7.384517
5.669317
3.647898
2.210132
2.294691
4.165654
6.670853
8.720922
10.459818
12.122665
13.285796
13.671205
13.498491
13.015859
12.536312
12.597274
13.382950
14.229364
13.829972
11.121534
6.718614
3.036250
1.915297
2.688822
3.471445
3.544052
3.389836
3.226330
3.019289
3.197427
3.856028
4.107641
3.457725
2.940572
3.648723
4.681614
3.903583
0.677390
-3.196797
-5.339523
-4.900867
-2.798445
-0.606072
0.507867
0.246249
-1.024698
-2.701880
-3.918227
-3.543352
-1.110472
2.093066
3.583333
1.909173
-1.836230
-5.282096
-7.359724
-8.513524
-8.704693
-7.123233
-4.127298
-1.892808
-2.153984
-4.237213
-6.749873
-9.621200
-12.347301
-12.863530
-10.737457
-8.554186
-8.331590
-9.621925
-11.702018
-14.258730
-15.824028
-14.599528
-11.147678
-8.150812
-7.030418
-6.666772
-6.205066
-6.578400
-7.978047
-8.581740
-6.934650
-3.607246
-0.307723
1.677011
2.498425
3.046714
3.047434
1.358953
-1.682033
-4.275118
-5.050729
-3.392511
0.096122
2.942696
3.565862
3.454192
3.994595
4.007782
2.423669
0.500100
0.184157
2.036821
4.905523
6.915165
7.384856
7.347270
7.236014
5.889818
3.185581
1.120788
0.861605
1.295769
1.460195
1.781318
2.423123
2.672424
2.136879
1.214766
0.646682
1.063001
2.166857
2.616488
1.822689
0.916223
1.133098
2.438172
3.866497
4.527949
4.439255
4.277558
4.368727
4.475909
4.410326
4.193913
3.832713
3.611755
4.031573
4.813126
5.016971
4.473426
3.830209
3.221709
2.162424
0.664536
-0.549821
-0.881941
-0.411833
0.178034
0.077019
-1.065584
-2.834003
-4.194199
-4.110624
-2.407058
-0.087339
1.607818
2.472008
3.036421
3.258461
2.519343
0.798772
-1.117544
-2.581997
-3.273274
-2.658368
-0.682480
1.232819
1.409048
0.036125
-1.151105
-1.182913
-0.500527
0.457722
1.614709
2.389077
2.100917
1.345199
1.520427
2.491616
2.513289
1.246689
0.554804
1.590231
3.489582
5.325619
6.992340
7.973447
