EVENT_NAME: 202001241755
EVENT_ID: 8178
EVENT_DATE_YYYYMMDD: 2020/01/24
EVENT_TIME_HHMMSS: 17:55:11.00000
EVENT_LATITUDE_DEGREE: 38.4444
EVENT_LONGITUDE_DEGREE: 20.4444
EVENT_DEPTH_KM: 8.06
HYPOCENTER_REFERENCE: AFAD
MAGNITUDE_W: 6.8
MAGNITUDE_W_REFERENCE: AFAD
MAGNITUDE_L: 
MAGNITUDE_L_REFERENCE: 
FOCAL_MECHANISM: 
NETWORK: TK
STATION_CODE: 2308
STATION_NAME: 
STATION_LATITUDE_DEGREE: 38.9999
STATION_LONGITUDE_DEGREE: 39.9999
STATION_ELEVATION_M: 1248.0
LOCATION: Elazig_Sivrice_Turkiye
SENSOR_DEPTH_M: 
VS30_M/S: 450
SITE_CLASSIFICATION_EC8: B
MORPHOLOGIC_CLASSIFICATION: 
EPICENTRAL_DISTANCE_KM: 23.81
EARTHQUAKE_BACKAZIMUTH_DEGREE: 
DATE_TIME_FIRST_SAMPLE_YYYYMMDD_HHMMSS: 2020/01/24 17:54:45.33222000
DATE_TIME_FIRST_SAMPLE_PRECISION: millisecond
SAMPLING_INTERVAL_S: 0.01
NDATA: 5551
DURATION_S: 
STREAM: HNZ
UNITS: cm/s^2
INSTRUMENT: sensor = CMG-5T/GURALP | digitizer = 
INSTRUMENT_ANALOG/DIGITAL: 
INSTRUMENTAL_FREQUENCY_HZ: 
INSTRUMENTAL_DAMPING: 
FULL_SCALE_G: 
N_BIT_DIGITAL_CONVERTER: 
PGA_CM/S^2: 178.577
TIME_PGA_S: 
BASELINE_CORRECTION: BASELINE REMOVED
FILTER_TYPE: BUTTERWORTH
FILTER_ORDER: 2
LOW_CUT_FREQUENCY_HZ: 0.1
HIGH_CUT_FREQUENCY_HZ: 25.0
LATE/NORMAL_TRIGGERED: NT
DATABASE_VERSION: 
HEADER_FORMAT: DYNA 1.2
DATA_TYPE: Acceleration
PROCESSING: Manual Paolucci et al., 2011
DATA_TIMESTAMP_YYYYMMDD_HHMMSS: 
DATA_LICENSE: U (unknown license)
DATA_CITATION: Turkish Accelerometric Archive v 1.0 - Disaster And Emergency Management Presidency, Earthquake Department
DATA_CREATOR: AFAD
ORIGINAL_DATA_MEDIATOR_CITATION: : AFAD - Disaster And Emergency Management Presidency
ORIGINAL_DATA_MEDIATOR: AFAD PROCESS SERVICE
ORIGINAL_DATA_CREATOR_CITATION: AFAD PROCESS SERVICE
ORIGINAL_DATA_CREATOR: network: TK
USER1: GuestUser
USER2: 
USER3: 
USER4: 
USER5: 
-9.764531
-8.304752
-7.744179
-7.917989
-6.070438
-1.581508
2.620502
4.791270
6.530230
9.366938
12.350906
14.110661
14.830083
14.694301
12.550788
7.973111
3.729102
4.400953
11.226889
19.796018
25.070952
26.043432
23.717731
18.982648
13.905735
11.254091
12.257364
16.567315
23.210218
30.674721
37.278072
41.778216
43.241795
40.730187
33.739615
23.232343
11.933218
3.312781
0.060283
2.261313
6.872853
10.558243
12.299964
12.023212
8.816338
2.315530
-5.318948
-10.682387
-12.623337
-12.848623
-12.815767
-11.855135
-9.117983
-6.369832
-6.579316
-9.467305
-11.992847
-13.032550
-13.515204
-13.551455
-12.773642
-11.523425
-9.987250
-7.525913
-3.791676
0.059059
2.260584
1.879596
-1.150082
-5.513735
-8.407118
-8.204983
-6.326474
-5.724760
-7.890168
-10.515229
-9.975438
-7.096771
-5.814232
-5.956008
-3.842342
0.124065
1.119932
-2.587110
-7.525152
-10.951090