EVENT_NAME: 202001241755
EVENT_ID: 8178
EVENT_DATE_YYYYMMDD: 2020/01/24
EVENT_TIME_HHMMSS: 17:55:11.00000
EVENT_LATITUDE_DEGREE: 38.1111
EVENT_LONGITUDE_DEGREE: 35.1111
EVENT_DEPTH_KM: 8.06
HYPOCENTER_REFERENCE: AFAD
MAGNITUDE_W: 6.8
MAGNITUDE_W_REFERENCE: AFAD
MAGNITUDE_L: 
MAGNITUDE_L_REFERENCE: 
FOCAL_MECHANISM: 
NETWORK: TK
STATION_CODE: 2308
STATION_NAME: 
STATION_LATITUDE_DEGREE: 38.6666
STATION_LONGITUDE_DEGREE: 39.6666
STATION_ELEVATION_M: 1248.0
LOCATION: Elazig_Sivrice_Turkiye
SENSOR_DEPTH_M: 
VS30_M/S: 450
SITE_CLASSIFICATION_EC8: B
MORPHOLOGIC_CLASSIFICATION: 
EPICENTRAL_DISTANCE_KM: 23.81
EARTHQUAKE_BACKAZIMUTH_DEGREE: 
DATE_TIME_FIRST_SAMPLE_YYYYMMDD_HHMMSS: 2020/01/24 17:54:45.33222000
DATE_TIME_FIRST_SAMPLE_PRECISION: millisecond
SAMPLING_INTERVAL_S: 0.01
NDATA: 5551
DURATION_S: 
STREAM: HNZ
UNITS: cm/s^2
INSTRUMENT: sensor = CMG-5T/GURALP | digitizer = 
INSTRUMENT_ANALOG/DIGITAL: 
INSTRUMENTAL_FREQUENCY_HZ: 
INSTRUMENTAL_DAMPING: 
FULL_SCALE_G: 
N_BIT_DIGITAL_CONVERTER: 
PGA_CM/S^2: 178.577
TIME_PGA_S: 
BASELINE_CORRECTION: BASELINE REMOVED
FILTER_TYPE: BUTTERWORTH
FILTER_ORDER: 2
LOW_CUT_FREQUENCY_HZ: 0.1
HIGH_CUT_FREQUENCY_HZ: 25.0
LATE/NORMAL_TRIGGERED: NT
DATABASE_VERSION: 
HEADER_FORMAT: DYNA 1.2
DATA_TYPE: Acceleration
PROCESSING: Manual Paolucci et al., 2011
DATA_TIMESTAMP_YYYYMMDD_HHMMSS: 
DATA_LICENSE: U (unknown license)
DATA_CITATION: Turkish Accelerometric Archive v 1.0 - Disaster And Emergency Management Presidency, Earthquake Department
DATA_CREATOR: AFAD
ORIGINAL_DATA_MEDIATOR_CITATION: : AFAD - Disaster And Emergency Management Presidency
ORIGINAL_DATA_MEDIATOR: AFAD PROCESS SERVICE
ORIGINAL_DATA_CREATOR_CITATION: AFAD PROCESS SERVICE
ORIGINAL_DATA_CREATOR: network: TK
USER1: GuestUser
USER2: 
USER3: 
USER4: 
USER5: 
-9.764531
-8.304752
-7.744179
-7.917989
-6.070438
-1.581508
2.620502
4.791270
6.530230
9.366938
12.350906
14.110661
14.830083
14.694301
12.550788
7.973111
3.729102
4.400953
11.226889
19.796018
25.070952
26.043432
23.717731
18.982648
13.905735
11.254091
12.257364
16.567315
23.210218
30.674721
37.278072
41.778216
43.241795
40.730187
33.739615
23.232343
11.933218
3.312781
0.060283
2.261313
6.872853
10.558243
12.299964
12.023212
8.816338
2.315530
-5.318948
-10.682387
-12.623337
-12.848623
-12.815767
-11.855135
-9.117983
-6.369832
-6.579316
-9.467305
-11.992847
-13.032550
-13.515204
-13.551455
-12.773642
-11.523425
-9.987250
-7.525913
-3.791676
0.059059
2.260584
1.879596
-1.150082
-5.513735
-8.407118
-8.204983
-6.326474
-5.724760
-7.890168
-10.515229
-9.975438
-7.096771
-5.814232
-5.956008
-3.842342
0.124065
1.119932
-2.587110
-7.525152
-10.951090
-13.601193
-15.792521
-15.918756
-13.763257
-11.495244
-10.996035
-12.108060
-13.500075
-14.208345
-13.323956
-9.801123
-4.892897
-2.227861
-3.464618
-6.436909
-8.472083
-9.559476
-10.779954
-11.104640
-8.751456
-4.109664
0.905750
3.613648
1.238697
-5.158243
-9.424987
-6.158229
3.672025
13.841586
18.956074
18.706035
15.290312
9.570714
2.944762
-0.937978
0.001035
3.805176
7.754688
11.458105
15.182621
17.760610
18.507729
18.611579
18.540478
16.743590
12.370612
7.465190
4.987412
5.537882
7.843553
10.909395
13.410951
13.215678
9.733984
5.488155
3.870062
5.493755
7.764752
7.928637
6.006708
4.895244
6.878023
10.469299
12.359108
11.248958
8.086100
4.025084
0.200969
-1.650063
-1.345208
-1.992480
-6.460838
-13.267491
-17.740841
-16.767867
-12.165395
-8.480479
-7.822566
-9.013751
-10.323191
-10.805416
-10.627042
-11.006393
-12.857677
-15.448949
-16.886464
-16.116846
-13.357677
-8.554302
-2.488919
0.814624
-2.625203
-10.923318
-17.903211
-20.117815
-18.798564
-16.513185
-15.305985
-16.116715
-17.697514
-17.455130
-14.253479
-9.989889
-8.004024
-9.444790
-12.045184
-13.714803
-15.197998
-17.233986
-18.676126
-19.214501
-19.934126
-20.199609
-17.107643
-9.498668
-1.488295
0.451258
-5.376200
-13.627419
-17.623296
-15.863884
-11.686238
-8.589208
-8.209026
-10.468279
-13.331701
-14.038949
-12.036029
-9.589917
-8.203771
-6.552317
-4.024911
-2.714053
-3.729464
-5.012095
-3.754340
0.858321
7.064645
12.390592
15.995401
18.051066
18.150092
16.755544
16.026661
16.605043
16.260941
13.551026
10.124735
8.342297
8.850963
11.081478
13.975374
15.826973
15.875384
16.086440
18.458157
21.310983
21.511422
19.016065
16.452553
15.884461
17.552956
20.176451
21.855243
21.723123
20.836017
20.863043
21.869402
21.911939
19.260139
14.656079
10.684414
9.395128
11.184256
14.765092
17.408081
16.694662
12.871066
8.611893
6.303650
6.153687
6.719960
6.655952
5.881955
4.958821
3.596901
1.374583
0.037389
2.446570
8.545666
14.690903
17.345175
15.469858
9.700703
1.785883
-5.225153
-8.525722
-7.522171
-3.586773
1.444643
6.085221
8.778462
7.445634
1.016311
-8.430484
-16.608171
-20.788670
-21.722727
-20.909505
-17.791853
-12.133584
-6.825423
-4.988846
-6.034213
-7.115239
-7.485175
-9.146596
-12.674266
-14.804381
-12.108209
-4.936385
3.969339
12.150090
17.116122
16.238400
9.337553
-0.002056
-7.391279
-11.150827
-12.023968
-10.596497
-6.681305
-1.107718
3.613948
5.055820
2.347450
-3.845302
-11.273580
-16.157702
-15.227387
-8.925633
-1.637285
2.649799
3.936469
3.904332
2.244663
-1.373884
-3.787223
-1.271427
4.852798
8.930955
6.563204
-2.115560
-12.899603
-20.307356
-21.536772
-17.795180
-11.792697
-5.834732
-1.951375
-1.041065
-1.805052
-2.609900
-3.663177
-5.389119
-6.360769
-4.967082
-1.558859
2.037815
3.998722
3.776345
2.252251
0.208694
-2.070749
-3.279949
-1.586820
2.585571
6.198918
6.608782
3.856176
0.094057
-2.010612
-0.702375
3.423228
7.776993
10.442907
11.426414
11.419147
10.969833
10.182971
8.552677
6.546434
6.570524
10.154157
15.507576
19.623008
20.933835
18.866873
13.496975
7.141518
3.803215
5.174630
8.741250
10.900668
10.433319
8.321234
5.599329
2.193554
-2.162563
-6.317964
-8.088669
-6.407261
-2.523127
0.814936
1.372359
-1.178136
-5.712319
-10.569428
-13.698730
-13.368677
-9.847866
-5.841387
-4.532180
-7.064753
-11.810281
-15.963179
-17.765156
-17.025589
-14.357918
-11.213703
-9.985032
-12.454748
-17.921709
-23.257144
-25.130230
-22.641275
-17.795595
-13.495587
-11.655369
-12.742916
-15.667504
-18.006490
-17.518827
-14.014421
-9.369055
-5.339897
-2.094118
0.318573
0.526368
-2.448040
-7.494616
-12.846711
-17.351730
-19.500065
-17.789881
-13.111813
-8.639320
-6.427363
-5.796799