EVENT_NAME: 202001241755
EVENT_ID: 8178
EVENT_DATE_YYYYMMDD: 2020/01/24
EVENT_TIME_HHMMSS: 17:55:11.00000
EVENT_LATITUDE_DEGREE: 38.3593
EVENT_LONGITUDE_DEGREE: 39.063
EVENT_DEPTH_KM: 8.06
HYPOCENTER_REFERENCE: AFAD
MAGNITUDE_W: 6.8
MAGNITUDE_W_REFERENCE: AFAD
MAGNITUDE_L: 
MAGNITUDE_L_REFERENCE: 
FOCAL_MECHANISM: 
NETWORK: TK
STATION_CODE: 2308
STATION_NAME: 
STATION_LATITUDE_DEGREE: 38.45063
STATION_LONGITUDE_DEGREE: 39.3102
STATION_ELEVATION_M: 1248.0
LOCATION: Elazig_Sivrice_Turkiye
SENSOR_DEPTH_M: 
VS30_M/S: 450
SITE_CLASSIFICATION_EC8: B
MORPHOLOGIC_CLASSIFICATION: 
EPICENTRAL_DISTANCE_KM: 23.81
EARTHQUAKE_BACKAZIMUTH_DEGREE: 
DATE_TIME_FIRST_SAMPLE_YYYYMMDD_HHMMSS: 2020/01/24 17:54:45.33222000
DATE_TIME_FIRST_SAMPLE_PRECISION: millisecond
SAMPLING_INTERVAL_S: 0.01
NDATA: 5551
DURATION_S: 
STREAM: HNN
UNITS: cm/s^2
INSTRUMENT: sensor = CMG-5T/GURALP | digitizer = 
INSTRUMENT_ANALOG/DIGITAL: 
INSTRUMENTAL_FREQUENCY_HZ: 
INSTRUMENTAL_DAMPING: 
FULL_SCALE_G: 
N_BIT_DIGITAL_CONVERTER: 
PGA_CM/S^2: 235.790
TIME_PGA_S: 
BASELINE_CORRECTION: BASELINE REMOVED
FILTER_TYPE: BUTTERWORTH
FILTER_ORDER: 2
LOW_CUT_FREQUENCY_HZ: 0.1
HIGH_CUT_FREQUENCY_HZ: 25.0
LATE/NORMAL_TRIGGERED: NT
DATABASE_VERSION: 
HEADER_FORMAT: DYNA 1.2
DATA_TYPE: Acceleration
PROCESSING: Manual Paolucci et al., 2011
DATA_TIMESTAMP_YYYYMMDD_HHMMSS: 
DATA_LICENSE: U (unknown license)
DATA_CITATION: Turkish Accelerometric Archive v 1.0 - Disaster And Emergency Management Presidency, Earthquake Department
DATA_CREATOR: AFAD
ORIGINAL_DATA_MEDIATOR_CITATION: : AFAD - Disaster And Emergency Management Presidency
ORIGINAL_DATA_MEDIATOR: AFAD PROCESS SERVICE
ORIGINAL_DATA_CREATOR_CITATION: AFAD PROCESS SERVICE
ORIGINAL_DATA_CREATOR: network: TK
USER1: GuestUser
USER2: 
USER3: 
USER4: 
USER5: 
0.000000
0.002152
0.004306
0.004307
0.004308
0.004309
0.004308
0.004308
0.004306
0.004304
0.004302
0.004299
0.004296
0.004292
0.004288
0.004283
0.004278
0.004273
0.004268
0.004262
0.004256
0.004251
0.004245
0.004239
0.004234
0.004228
0.004223
0.004219
0.004214
0.004211
0.004207
0.004205
0.004204
0.004203
0.004203
0.004204
0.004207
0.004210
0.004216
0.004222
0.004230
0.004239
0.004251
0.004264
0.004280
0.004297
0.004315
0.004336
0.004360
0.004385
0.004414
0.004445
0.004478
0.004513
0.004551
0.004592
0.004635
0.004681
0.004730
0.004783
0.004839
0.004897
0.004957
0.005022
0.005090
0.005157
0.005227
0.005303
0.005382
0.005463
0.005550
0.005642
0.005734
0.005823
0.005912
0.006003
0.006100
0.006204
0.006312
0.006423
0.006539
0.006655
0.006763
0.006863
0.006973
0.007094
0.007216
0.007347
0.007489
0.007616
0.007722
0.007832
0.007948
0.008051
0.008163
0.008311
0.008469
0.008595
0.008692
0.008781
0.008859
0.008922
0.009001
0.009117
0.009258
0.009384
0.009470
0.009539
0.009633
0.009739
0.009805
0.009845
0.009928
0.010038
0.010073
0.010044
0.010089
0.010197
0.010198
0.010094
0.010047
0.010075
0.010072
0.010056
0.010094
0.010099
0.009999
0.009893
0.009833
0.009707
0.009511
0.009393
0.009338
0.009174
0.008944
0.008819
0.008706
0.008443
0.008146
0.007935
0.007719
0.007453
0.007174
0.006898
0.006667
0.006446
0.006100
0.005655
0.005220
0.004732
0.004136
0.003592
0.003295
0.003175
0.002922
0.002424
0.001859
0.001234
0.000385
-0.000503
-0.001015
-0.001169
-0.001407
-0.001941
-0.002570
-0.003192
-0.004099
-0.005331
-0.006246
-0.006562
-0.006994
-0.007961
-0.008921
-0.009621
-0.010533
-0.011713
-0.012508
-0.012744
-0.013161
-0.014113
-0.014973
-0.015436
-0.016095
-0.017380
-0.018947
-0.020185
-0.021047
-0.022098
-0.023262
-0.023777
-0.024057
-0.025202
-0.026687
-0.027444
-0.028023
-0.029097
-0.029944
-0.030264
-0.031087
-0.032697
-0.034153
-0.035023
-0.035550
-0.035986
-0.036729
-0.037849
-0.038980
-0.040242
-0.041760
-0.042792
-0.042936
-0.043161
-0.044255
-0.045413
-0.046003
-0.047002
-0.048630
-0.049332
-0.048957
-0.049272
-0.050597
-0.051724
-0.052430
-0.053059
-0.053440
-0.053831
-0.054625
-0.055399
-0.056100
-0.057170
-0.058093
-0.058407
-0.058804
-0.059576
-0.059998
-0.059521
-0.058663
-0.058865
-0.060479
-0.061951
-0.062657
-0.063335
-0.063407
-0.062188
-0.060883
-0.060360
-0.060012
-0.059633
-0.059907
-0.061142
-0.062592
-0.063045
-0.062078
-0.060683
-0.060094
-0.060172
-0.060287
-0.060780
-0.061262
-0.059808
-0.056619
-0.054812
-0.055238
-0.055203
-0.054053
-0.054257
-0.055689
-0.055493
-0.053632
-0.052322
-0.051673
-0.050313
-0.048303
-0.047155
-0.047312
-0.046970
-0.044725
-0.041865
-0.041557
-0.043242
-0.043803
-0.043740
-0.044297
-0.044615
-0.043028
-0.041063
-0.041010
-0.041703
-0.041171
-0.040729
-0.042103
-0.043171
-0.041540
-0.039319
-0.039321
-0.040316
-0.039921
-0.038622
-0.038248
-0.038584
-0.038136
-0.037239
-0.037186
-0.037541
-0.037326
-0.037206
-0.037949
-0.038210
-0.036827
-0.035659
-0.036534
-0.038117
-0.038553
-0.037938
-0.037191
-0.036266
-0.034064
-0.031174
-0.030430
-0.032250
-0.033829
-0.034294
-0.035177
-0.036312
-0.035913
-0.033762
-0.031754
-0.031040
-0.030260
-0.028803
-0.028704
-0.030134
-0.030632
-0.030347
-0.031303
-0.032613
-0.031765
-0.028867
-0.026629
-0.026505
-0.026791
-0.025931
-0.025270
-0.026209
-0.027477
-0.027917
-0.029105
-0.031945
-0.034513
-0.037684
-0.046613
-0.062025
-0.077550
-0.086161
-0.082086
-0.060991
-0.024853
0.015103
0.046729
0.070720
0.088230
0.080950
0.044105
0.005930
-0.026611
-0.069017
-0.102444
-0.104820
-0.097429
-0.102018
-0.106060
-0.084837
-0.030041
0.047292
0.136998
0.212843
0.223912
0.194072
0.233477
0.332573
0.323312
0.144702
-0.080294
-0.231514
-0.243890
-0.133794
-0.084545
-0.232158
-0.413455
-0.402420
-0.242597
-0.141211
-0.183297
-0.306219
-0.459213
-0.616647
-0.684482
-0.581642
-0.383974
-0.210580
-0.041264
0.176494
0.397041
0.577272
0.715354
0.829685
0.993718
1.211592
1.356706
1.275938
0.774802
-0.059701
-0.511722
-0.103147
0.570112
0.753770
0.512095
0.251240
0.089885
-0.133681
-0.651217
-1.387608
-1.812951
-1.564424
-1.042165
-0.883919
-0.897385
-0.211794
1.235994
2.273189
2.055994
1.114790
0.465055
0.578705
1.310992
2.124642
2.517273
2.503345
2.336769
1.905873
0.920366
-0.464464
-1.568615
-1.812007
-1.416959
-1.073806
-0.822331
-0.268809
0.105167
-0.621491
-2.100916
-2.840370
-1.980537
-0.085773
1.723008
2.802022
3.036938
2.330112
0.602136
-1.574084
-2.945844
-2.766219
-1.605486
-0.533200
-0.011285
0.082297
-0.005278
0.066795
0.511434
0.918139
0.842348
0.868808
1.839174
3.356041
4.243626
3.916518
2.650182
1.077895
-0.404563
-1.778487
-2.760438
-2.624451
-1.333227
-0.171078
-0.382945
-1.739265
-3.012299
-3.083819
-1.501292
1.006681
2.860606
3.298694
3.121290
3.417658
4.145953
4.129382
2.459364
-0.247092
-2.550237
-3.741904
-4.008430
-3.796110
-3.637404
-3.777806
-3.564037
-2.188049
-0.285881
0.477488
-0.426946
-1.744439
-1.662691
0.818463
4.821561
7.857957
8.040848
5.736878
2.860842
1.150497
0.889949
0.983248
0.406637
-0.963581
-2.905171
-5.055106
-6.827895
-7.981146
-8.415523
-7.350954
-4.304187
-0.572486
1.962348
2.988790
3.366963
3.551296
3.678460
4.054742
4.704424
5.391702
5.788075
5.136076
3.026706
0.335571
-1.722434
-2.657028
-2.324974
-0.522423
2.279127
4.511658
4.891666
3.466704
1.376627
0.905519
3.756118
8.087947
10.170981
8.693887
5.006126
1.047403
-1.344314
-1.525232
-1.062894
-1.667937
-3.061395
-4.688523
-7.336836
-11.060464
-13.685435
-13.130308
-9.793508
-5.662352
-2.029822
1.396076
5.643289
10.827416
15.402830
17.641631
17.206994
14.368400
9.613814
4.803090
1.681183
-0.005807
-0.449533
0.460352
0.944371
-0.490600
-3.817733
-9.879368
-17.357181
-20.315917
-15.718996
-8.009395
-2.680119
-0.989940
-1.563558
-3.102278
-5.556092
-9.234293
-11.831190
-9.076709
-1.379453
4.400201
3.565317
-0.371983
-0.789267
4.011420
9.082420
8.801183
3.598365
-1.242428
-1.448637
3.779962
11.802162
17.736424
18.066578
12.955396
5.169561
-1.865409
-5.843818
-6.089052
-3.253479
-0.699097
-3.137743
-10.095833
-15.208462
-14.209370
-8.221688
-0.214967
6.604066
9.780467
9.994342
9.784927
9.607028
7.942941
5.460887
5.545126
9.110097
12.345306
11.442498
7.038343
2.441472
-1.209323
-5.311433
-9.189802
-9.348905
-4.765747
0.984384
3.811308
2.264276
-2.502177
-6.486052
-4.408831
4.370018
13.335391
15.737846
11.424091
4.431072
-2.187256
-6.927581
-8.972765
-9.243327
-9.842137
-10.544982
-9.414885
-8.300099
-11.664233
-18.857237
-24.195451
-24.895845
-23.470582
-22.230913
-19.307145
-11.757262
-1.025220
7.119171
8.684079
5.981404
4.712981
7.937724
13.825932
17.036996
13.019638
4.182899
-0.859195
2.725297
10.830357
16.593427
16.463520
10.982673
4.367265
0.376575
-2.900132
-8.880887
-15.239883
-17.288665
-15.516382
-15.176733
-20.241283
-28.125665
-30.937364
-25.921811
-20.467723
-20.139160
-20.878240
-19.398214
-18.149688
-17.723674
-17.227671
-17.769602
-17.662359
-13.410191
-6.794796
-2.336627
-1.096997
-2.007466
-4.934995
-9.495422
-13.191826
-13.707050
-12.485775
-12.744516
-14.438208
-14.104285
-10.372423
-7.669821
-9.599477
-11.298328
-7.458165
-1.691891
0.257800
-2.651642
-7.255675
-5.611910
8.025645
26.813656
38.516524
40.710546
40.038961
40.581054
40.146799
36.105587
30.098836
26.577605
28.106722
32.999062
37.460246
39.521902
41.114594
44.454233
46.578169
42.578668
32.604046
20.734300
11.003280
6.453512
7.178283
10.015934
12.269165
12.383664
8.495568
1.196561
-5.083553
-6.155341
-1.374877
6.174787
12.300335
16.002135
19.838015
26.108200
34.014154
40.980169
47.285364
55.318588
62.949627
64.898174
59.541160
48.911705
36.764938
24.367816
3.600555
-32.986373
-74.502636
-101.950483
-111.874666
-114.410419
-117.848117
-126.342032
-137.721580
-140.317412
-130.784044
-124.955669
-132.703668
-141.817545
-138.497446
-123.462820
-102.762412
-80.546924
-64.446170
-58.494775
-46.862386
-8.492693
51.030907
106.367869
144.285942
168.794107
187.727530
206.031838
222.579740
233.059126
235.789533
229.588234
213.574325
190.080144
160.532924
124.090559
83.442758
45.372017
13.629963
-14.664420
-41.764760
-64.724397
-83.596013
-102.909052
-122.227248
-136.193261
-138.830770
-124.079748
-93.663340
-60.495190
-34.688470
-14.671011
3.421761
17.016991
21.717635
18.190113
12.490570
13.246993
22.688769
31.354522
34.983453
43.577802
57.874363
60.784781
43.324290
16.779750
-0.503532
3.417895
22.722970
35.831975
32.727951
28.682283
37.524769
47.684873
38.779098
10.245346
-22.502214
-48.479093
-57.663775
-41.237257
-14.500289
-4.018643
-9.250893
-12.467495
-5.864700
13.340534
41.039775
57.291052
48.052588
23.067366
-0.831058
-17.896760
-32.559901
-47.385172
-54.544832
-46.112028
-30.591005
-29.369026
-54.723591
-95.578910
-128.724789
-139.054667
-125.895547
-99.840955
-74.904536
-56.321528
-40.238029
-25.716974
-15.423178
-6.273326
6.020357
17.532542
27.627399
45.936664
68.226016
71.518175
49.903382
19.467903
-14.237379
-51.579537
-78.027897
-86.806287
-92.836812
-102.950927
-108.119288
-104.817525
-95.109563
-80.909418
-72.806364
-85.298758
-114.993534
-139.017475
-143.776112
-136.344659
-118.534599
-81.088283
-32.293030
1.229534
7.358535
-0.822768
-6.036834
-1.902434
10.787496
25.650122
31.951872
29.886909
30.476857
32.441668
26.127042
14.729162
5.092906
-2.926688
-4.678377
7.943200
29.352352
38.235661
19.369911
-16.091072
-42.544355
-44.216421
-22.304446
5.441851
17.753950
12.946658
4.901993
1.823258
6.705437
24.512876
51.699666
74.311794
87.756911
97.392352
99.376506
86.458624
63.518222
40.167850
19.726437
2.329209
-10.282860
-20.136465
-33.216700
-46.986310
-54.087235
-55.547094
-55.945332
-60.797115
-77.164957
-100.740556
-114.423895
-103.769544
-68.113270
-21.671439
18.586624
43.785116
51.901379
50.872267
57.315943
80.583581
116.332736
153.748465
183.021412
199.993240
201.268132
180.954098
144.103162
110.507004
93.262495
87.373126
83.602376
77.309428
64.377234
43.940994
19.416573
-11.064761
-48.147265
-75.264087
-74.529370
-51.419254
-21.886941
6.968981
30.524200
47.159712
66.366248
91.951883
112.209417
122.990313
134.032458
147.610474
157.795147
166.997361
181.682752
195.128363
192.748712
174.276346
151.020008
127.668635
108.675833
102.417389
101.816330
86.720752
47.009489
-12.987861
-76.689324
-119.071180
-126.614217
-108.799440
-86.205479
-74.105704
-72.750141
-72.663423
-70.436402
-70.124770
-71.334455
-67.361120
-54.785642
-38.379112
-23.496493
-8.951479
5.838388
15.439517
16.624121
10.732257
-1.165806
-14.505986
-20.707237
-18.775921
-19.547013
-31.683336
-49.150647
-61.938027
-71.055869
-80.326679
-85.817464
-84.328047
-79.866057
-73.566459
-56.167647
-23.058056
8.767699
17.104603
2.143826
-17.234993
-25.084956
-19.128776
-9.849440
-10.791258
-25.565589
-46.617516
-65.117070
-76.914586
-82.471237
-82.860357
-75.038615
-59.694489
-48.401948
-48.906982
-56.241362
-64.471664
-69.659742
-66.798377
-57.481579
-50.101516
-47.887719
-45.659828
-36.885869
-20.330441
-3.686029
2.074083
-5.084922
-19.563344
-38.403215
-59.087768
-75.241419
-83.512367
-88.153301
-95.022298
-102.331289
-100.872498
-87.396392
-70.305236
-56.602217
-43.888245
-29.066807
-13.298503
3.527456
22.677168
41.929208
59.167871
73.820219
78.181958
61.353332
28.578009
-1.558081
-22.002053
-38.569628
-53.645137
-69.995418
-93.593108
-117.629627
-126.024556
-116.289555
-100.200943
-88.403640
-84.198069
-82.815313
-73.774377
-49.407310
-12.105956
25.268422
47.612854
51.542285
49.030228
54.661316
72.857198
95.368123
108.180997
102.889049
78.439438
37.133719
-8.672785
-37.620689
-39.596164
-22.296498
0.476061
14.538478
13.206154
6.062162
6.242072
16.149574
34.828140
61.726766
87.564003
98.917283
93.619821
80.827912
68.941429
60.952873
58.614294
64.042371
76.246537
91.109284
104.455314
110.110566
101.017769
79.719315
59.272985
49.417259
50.952773
60.360432
69.316092
66.884993
49.132020
19.279364
-18.659583
-56.805960
-83.209496
-94.982364
-100.490698
-101.960812
-91.360919
-68.445017
-46.353243
-35.563560
-33.877128
-32.649860
-25.589597
-10.282147
13.715349
41.979697
65.136284
80.026924
92.985635
106.584848
114.955624
112.816134
99.661489
78.754708
54.521786
28.953556
5.029332
-11.723579
-22.313674
-34.289844
-50.161531
-66.981744
-83.398373
-97.763872
-104.795794
-101.641356
-93.436842
-85.194267
-72.056056
-47.463316
-16.656859
7.951385
22.108623
34.346811
56.755669
93.369919
135.164256
165.143784
171.862301
158.836333
140.295581
131.218520
138.913133
157.873964
175.387414
183.979433
183.929037
176.472062
161.764534
142.099928
122.185609
105.216213
89.536517
71.560082
52.085513
35.109989
20.722521
4.517433
-16.092499
-37.625610
-52.108051
-52.763469
-39.919214
-22.446254
-11.569505
-11.236188
-16.057754
-19.560316
-21.959348
-28.307898
-40.583454
-54.213816
-62.848919
-64.996057
-65.953255
-73.267092
-88.217690
-103.513913
-113.341532
-120.293062
-127.302471
-132.264405
-134.162625
-133.597603
-128.453109
-117.325352
-102.118747
-84.442405
-64.579683
-43.150816
-22.825110
-9.070114
-5.152517
-7.589131
-11.776281
-18.039420
-27.517509
-36.960337
-41.424838
-38.725628
-28.448488
-11.162002
6.717751
14.250420
8.546666
-1.787748
-8.878662
-12.742205
-17.008191
-24.604043
-35.863738
-47.473957
-55.073241
-58.016192
-59.671982
-62.480589
-65.404989
-66.712068
-66.185936
-64.565299
-62.980048
-61.741242
-58.074276
-47.284924
-28.762493
-9.500873
1.284018
0.987744
-4.768539
-8.533221
-7.248736
-3.112534
0.376117
2.183672
2.351070
-0.068325
-5.221501
-12.464791
-21.222744
-27.499080
-25.215224
-15.413028
-6.727357
-3.996331
-3.924936
-2.471136
1.677581
9.604287
19.725275
25.918586
25.288962
23.281505
25.145292
27.839040
26.572670
23.280940
21.851450
21.496123
20.352448
18.251731
13.275164
3.693564
-7.193524
-15.093335
-20.140437
-25.227361
-33.328421
-44.447102
-52.899956
-52.132259
-41.371492
-25.524889
-11.078219
-1.036452
6.999186
16.926717
29.710537
41.857148
48.536580
50.193183
52.752777
59.831410
67.944586
70.513584
66.162905
60.670828
59.523651
62.473590
65.340454
63.058605
53.337009
40.021274
29.302285
22.769048
18.401898
15.681347
15.170430
15.927498
16.437457
16.616251
18.060738
22.659523
30.359086
37.920278
40.560522
35.474770
23.717230
9.242901
-2.919991
-8.323403
-5.113416
4.312373
14.491590
20.576915
20.743304
16.552286
12.181354
12.291676
19.611753
32.287319
43.365144
46.881636
43.664044
38.334997
33.860454
29.775060
22.884630
11.578505
-0.208376
-7.675431
-12.515224
-20.014000
-30.830738
-41.516663
-49.630601
-52.767493
-48.578877
-40.067018
-33.019063
-27.092470
-18.234370
-7.410042
1.353006
7.068431
11.148255
15.492712
21.364933
27.390212
31.658025
34.939616
37.953552
38.670912
35.514418
30.335823
26.024499
22.294480
15.846562
5.648920
-3.957400
-7.750826
-5.540491
-1.263784
2.209046
5.342250
9.786205
15.265849
19.257377
19.699898
16.698977
11.238014
4.317065
-2.354433
-7.481845
-11.886720
-16.509537
-19.835883
-20.396655
-20.874803
-25.995341
-35.926553
-45.364202
-49.906742
-49.653672
-46.464631
-41.921085
-37.892362
-35.546796
-34.174857
-33.099908
-33.681340
-37.784241
-44.556159
-49.980715
-50.604276
-46.549826
-39.891901
-32.128728
-23.750471
-14.795597
-6.911414
-4.440299
-9.905247
-19.686488
-28.174724
-33.643615
-37.063568
-39.617815
-43.107271
-48.061560
-51.870976
-52.184988
-49.436555
-44.145855
-36.030638
-27.112837
-20.874780
-17.260045
-13.222961
-7.998843
-3.054743
1.664699
7.135070
12.359800
14.962834
14.570602
14.382713
18.387308
27.352480
38.168869
46.225788
48.267973
44.531270
38.571194
33.424187
27.765885
18.532662
6.959191
-2.521014
-9.005883
-15.740969
-24.183174
-31.887815
-36.688761
-39.073859
-39.976707
-40.504388
-43.693393
-51.876869
-62.590456
-70.026348
-70.286086
-64.435937
-56.645432
-50.588104
-48.261860
-48.896533
-47.476650
-38.293173
-20.474940
2.650665
27.886051
53.674375
78.671934
100.508766
117.086018
128.633244
136.847030
142.953096
147.892352
152.473402
155.852983
155.351612
149.160562
138.346816
125.510994
112.738888
100.891235
89.734747
79.372431
71.047229
64.501452
56.305425
44.079409
30.505673
20.180626
14.457769
10.042421
0.019690
-20.821119
-48.081307
-70.062494
-81.072488
-87.425451
-98.247118
-114.626531
-129.984357
-138.239270
-138.560384
-133.338167
-124.828991
-114.172319
-101.824480
-88.291460
-74.676403
-61.966175
-49.579540
-36.149205
-21.775390
-7.028320
9.818788
31.815450
59.324493
87.810128
111.326461
128.843225
143.551080
156.608069
166.950744
174.517517
178.285213
174.324409
160.315543
140.705892
122.915578
107.923885
90.436428
68.407773
44.912722
21.801237
-1.609921
-25.037730
-46.006298
-61.286242
-69.813072
-74.677814
-80.185708
-86.508285
-90.155437
-89.939053
-87.699853
-83.658365
-77.261626
-70.517402
-65.331616
-60.785983
-55.164860
-48.198280
-41.737181
-38.935223
-41.577713
-47.856156
-52.445516
-49.559438
-38.839194
-28.015105
-25.760074
-31.944638
-38.635072
-39.591225
-35.139837
-28.760623
-21.872442
-12.990841
-1.191683
11.929836
23.609926
30.936443
32.239669
29.028809
23.890292
17.093344
7.851561
-3.857447
-18.372549
-35.047025
-49.078389
-53.934268
-47.626616
-35.166274
-25.863279
-27.059088
-38.017092
-51.068947
-59.535496
-63.168614
-66.102436
-71.212216
-77.832283
-84.108177
-87.919831
-85.568728
-76.061345
-66.613490
-64.535465
-65.723190
-61.923229
-53.376363
-44.716584
-36.801516
-27.969394
-16.085479
0.858910
21.686083
42.065326
59.454047
75.361655
92.327224
110.387973
126.335832
135.705588
135.960450
128.221190
116.015035
102.345963
87.818942
71.331249
51.768198
28.699766
2.598757
-24.784948
-50.459328
-70.938418
-83.641233
-88.091648
-85.959083
-80.071203
-72.626896
-63.690706
-51.807046
-36.009192
-17.083290
2.648782
21.142070
38.487937
56.225133
75.102104
94.247029
111.772171
125.376033
132.759021
132.225325
123.524863
108.654010
91.766519
77.481674
68.158049
61.811025
53.530048
40.764498
25.924501
12.113304
-0.871143
-13.360855
-21.567515
-21.679740
-16.162374
-10.524131
-7.050852
-5.449814
-5.405408
-7.054270
-10.902317
-16.479240
-21.376094
-22.852486
-20.590249
-17.192603
-14.225529
-9.598716
-1.849074
6.465857
12.442356
15.793839
16.317695
12.407715
4.052529
-5.294649
-11.588693
-13.826162
-14.291335
-16.103315
-20.582818
-25.956852
-28.362847
-25.065691
-16.767176
-6.422012
3.029131
9.635867
13.126640
15.107542
17.811844
22.585553
29.044981
35.113497
38.526019
38.562910
35.932884
31.671386
26.753467
21.812470
16.845765
11.920630
7.415075
2.658323
-4.031029
-13.068944
-22.987014
