EVENT_NAME: 202001241755
EVENT_ID: 8178
EVENT_DATE_YYYYMMDD: 2020/01/24
EVENT_TIME_HHMMSS: 17:55:11.00000
EVENT_LATITUDE_DEGREE: 38.3593
EVENT_LONGITUDE_DEGREE: 39.063
EVENT_DEPTH_KM: 8.06
HYPOCENTER_REFERENCE: AFAD
MAGNITUDE_W: 6.8
MAGNITUDE_W_REFERENCE: AFAD
MAGNITUDE_L: 
MAGNITUDE_L_REFERENCE: 
FOCAL_MECHANISM: 
NETWORK: TK
STATION_CODE: 2308
STATION_NAME: 
STATION_LATITUDE_DEGREE: 38.45063
STATION_LONGITUDE_DEGREE: 39.3102
STATION_ELEVATION_M: 1248.0
LOCATION: Elazig_Sivrice_Turkiye
SENSOR_DEPTH_M: 
VS30_M/S: 450
SITE_CLASSIFICATION_EC8: B
MORPHOLOGIC_CLASSIFICATION: 
EPICENTRAL_DISTANCE_KM: 23.81
EARTHQUAKE_BACKAZIMUTH_DEGREE: 
DATE_TIME_FIRST_SAMPLE_YYYYMMDD_HHMMSS: 2020/01/24 17:54:45.33222000
DATE_TIME_FIRST_SAMPLE_PRECISION: millisecond
SAMPLING_INTERVAL_S: 0.01
NDATA: 5551
DURATION_S: 
STREAM: HNZ
UNITS: cm/s^2
INSTRUMENT: sensor = CMG-5T/GURALP | digitizer = 
INSTRUMENT_ANALOG/DIGITAL: 
INSTRUMENTAL_FREQUENCY_HZ: 
INSTRUMENTAL_DAMPING: 
FULL_SCALE_G: 
N_BIT_DIGITAL_CONVERTER: 
PGA_CM/S^2: 178.577
TIME_PGA_S: 
BASELINE_CORRECTION: BASELINE REMOVED
FILTER_TYPE: BUTTERWORTH
FILTER_ORDER: 2
LOW_CUT_FREQUENCY_HZ: 0.1
HIGH_CUT_FREQUENCY_HZ: 25.0
LATE/NORMAL_TRIGGERED: NT
DATABASE_VERSION: 
HEADER_FORMAT: DYNA 1.2
DATA_TYPE: Acceleration
PROCESSING: Manual Paolucci et al., 2011
DATA_TIMESTAMP_YYYYMMDD_HHMMSS: 
DATA_LICENSE: U (unknown license)
DATA_CITATION: Turkish Accelerometric Archive v 1.0 - Disaster And Emergency Management Presidency, Earthquake Department
DATA_CREATOR: AFAD
ORIGINAL_DATA_MEDIATOR_CITATION: : AFAD - Disaster And Emergency Management Presidency
ORIGINAL_DATA_MEDIATOR: AFAD PROCESS SERVICE
ORIGINAL_DATA_CREATOR_CITATION: AFAD PROCESS SERVICE
ORIGINAL_DATA_CREATOR: network: TK
USER1: GuestUser
USER2: 
USER3: 
USER4: 
USER5: 
0.000000
-0.001608
-0.003210
-0.003201
-0.003192
-0.003181
-0.003171
-0.003160
-0.003148
-0.003136
-0.003123
-0.003110
-0.003096
-0.003081
-0.003066
-0.003050
-0.003034
-0.003017
-0.002999
-0.002981
-0.002961
-0.002942
-0.002921
-0.002899
-0.002877
-0.002854
-0.002830
-0.002805
-0.002779
-0.002753
-0.002725
-0.002697
-0.002667
-0.002637
-0.002605
-0.002573
-0.002539
-0.002505
-0.002469
-0.002433
-0.002395
-0.002356
-0.002316
-0.002276
-0.002233
-0.002190
-0.002145
-0.002100
-0.002053
-0.002004
-0.001956
-0.001906
-0.001855
-0.001802
-0.001748
-0.001693
-0.001637
-0.001579
-0.001521
-0.001462
-0.001401
-0.001336
-0.001271
-0.001207
-0.001143
-0.001078
-0.001011
-0.000943
-0.000873
-0.000802
-0.000732
-0.000658
-0.000581
-0.000505
-0.000427
-0.000345
-0.000263
-0.000187
-0.000110
-0.000032
0.000049
0.000132
0.000218
0.000305
0.000391
0.000473
0.000550
0.000633
0.000736
0.000848
0.000939
0.001013
0.001102
0.001196
0.001262
0.001335
0.001453
0.001571
0.001649
0.001720
0.001813
0.001905
0.001982
0.002061
0.002154
0.002248
0.002330
0.002421
0.002532
0.002628
0.002680
0.002712
0.002761
0.002853
0.002983
0.003116
0.003207
0.003264
0.003330
0.003429
0.003546
0.003645
0.003698
0.003717
0.003756
0.003836
0.003904
0.003918
0.003954
0.004081
0.004199
0.004227
0.004263
0.004353
0.004439
0.004532
0.004656
0.004730
0.004676
0.004578
0.004560
0.004598
0.004660
0.004761
0.004860
0.004971
0.005113
0.005125
0.005004
0.005002
0.005040
0.004870
0.004681
0.004687
0.004749
0.004791
0.004867
0.005003
0.005207
0.005285
0.005108
0.004917
0.004829
0.004726
0.004688
0.004769
0.004801
0.004719
0.004634
0.004701
0.004906
0.004956
0.004771
0.004615
0.004443
0.004052
0.003681
0.003577
0.003628
0.003772
0.004050
0.004300
0.004279
0.004035
0.003724
0.003199
0.002483
0.002154
0.002412
0.002741
0.002910
0.003061
0.003056
0.002786
0.002442
0.002047
0.001617
0.001659
0.002364
0.002837
0.002492
0.001900
0.001342
0.000717
0.000547
0.000869
0.001004
0.001079
0.001132
0.000525
-0.000132
0.000192
0.000925
0.001114
0.000465
-0.000684
-0.001318
-0.001455
-0.001962
-0.002134
-0.001408
-0.001075
-0.001534
-0.001914
-0.001942
-0.001606
-0.001368
-0.001805
-0.002037
-0.001643
-0.001929
-0.002924
-0.003273
-0.003210
-0.003680
-0.004129
-0.004036
-0.004186
-0.004750
-0.005036
-0.004993
-0.004698
-0.004301
-0.004221
-0.003898
-0.003160
-0.003246
-0.003993
-0.004523
-0.005622
-0.007151
-0.007607
-0.006990
-0.005947
-0.004872
-0.004341
-0.003854
-0.003040
-0.003331
-0.004997
-0.005920
-0.005386
-0.005155
-0.005821
-0.005783
-0.004681
-0.004321
-0.005266
-0.005973
-0.006004
-0.006416
-0.006870
-0.006247
-0.005074
-0.004485
-0.004810
-0.005750
-0.006535
-0.006961
-0.007721
-0.007736
-0.005903
-0.004810
-0.006363
-0.008154
-0.007727
-0.005864
-0.004518
-0.004481
-0.005215
-0.006399
-0.008100
-0.009012
-0.007967
-0.006389
-0.005695
-0.005255
-0.004757
-0.004940
-0.006137
-0.007807
-0.008700
-0.008292
-0.007398
-0.006457
-0.005665
-0.005785
-0.006601
-0.006926
-0.006626
-0.006695
-0.007221
-0.006641
-0.004840
-0.004461
-0.006321
-0.008127
-0.008716
-0.008483
-0.007708
-0.006992
-0.006379
-0.005377
-0.004751
-0.004922
-0.004727
-0.004225
-0.004873
-0.006525
-0.007481
-0.007082
-0.006637
-0.007015
-0.006812
-0.005499
-0.004983
-0.005286
-0.004257
-0.002072
-0.000390
0.000515
0.000147
-0.003489
-0.012009
-0.024689
-0.039933
-0.060882
-0.100652
-0.181337
-0.320866
-0.514687
-0.732753
-0.925776
-1.028712
-0.987819
-0.808534
-0.561427
-0.316601
-0.086878
0.105994
0.164924
0.072315
-0.000394
0.055340
0.129469
0.166695
0.283588
0.457814
0.436026
0.140438
-0.104484
0.023175
0.439674
0.859419
1.120124
1.173833
1.105219
1.124142
1.128973
0.592061
-0.610458
-1.786464
-2.282586
-2.093960
-1.515334
-0.937452
-0.785416
-0.967213
-0.767283
0.205647
1.475426
2.405060
2.759058
2.389054
1.224221
-0.187843
-0.940126
-0.843166
-0.487346
-0.081116
0.772707
2.001747
2.785652
2.597596
2.007913
2.039129
2.663213
2.687771
1.272518
-1.497763
-4.904486
-7.225854
-6.663441
-3.549654
0.145120
3.088993
4.501324
3.344903
-0.408080
-4.920802
-7.777653
-7.326904
-3.423900
1.844729
5.085048
4.716847
2.490567
0.834403
0.023210
-0.666759
-0.834236
0.226910
2.213660
4.459045
6.228468
6.213512
3.606459
-0.367914
-3.187932
-3.222066
-0.943049
1.812826
3.486668
3.228091
0.526721
-3.945916
-8.040752
-10.184812
-10.305714
-8.181144
-3.319611
3.140979
8.595768
10.995316
9.605193
5.082113
-0.309596
-3.972501
-4.762512
-3.026800
-0.022224
2.165461
1.535720
-1.969993
-6.005591
-7.732655
-5.734617
-0.450832
5.646993
8.826499
7.010448
1.547600
-4.688229
-9.535262
-11.416660
-9.073559
-2.878615
4.307582
8.746403
8.777106
6.145244
3.826913
2.551080
0.692397
-2.616408
-6.096747
-7.832963
-6.781775
-3.346546
0.676857
3.235156
3.447836
2.001795
0.489091
-0.054042
-0.261860
-1.167015
-1.876374
-0.378962
2.994631
4.983389
3.208782
-0.300619
-0.272576
6.044869
14.550913
17.961160
13.349399
3.697065
-6.077305
-11.682555
-10.763990
-5.099174
0.309511
2.579671
3.733355
6.483138
9.051608
7.347760
1.897208
-2.035282
-2.359755
-2.787823
-5.859232
-8.945757
-9.032209
-6.914766
-5.342862
-5.736137
-6.918792
-6.257068
-2.978543
0.917370
4.435102
8.280380
10.633208
8.461716
3.549190
0.831701
1.324435
1.924418
0.999174
-0.194724
-0.174843
2.180099
6.764170
9.800746
6.382861
-4.456093
-18.971103
-29.676112
-28.853635
-16.611078
-2.353271
5.186758
4.226479
-4.091224
-16.843579
-25.780533
-22.089612
-5.646706
15.617492
32.205334
35.390476
20.835468
-4.493434
-25.413667
-31.369763
-21.738330
-2.159346
18.350627
30.975798
31.996571
23.304603
9.997519
-1.702092
-7.277137
-4.924777
4.932900
16.207445
18.591524
10.247770
-0.425503
-9.021102
-16.062540
-17.693202
-11.872731
-4.494531
1.149878
8.064070
15.135558
16.325588
10.234876
0.811041
-8.130118
-13.233223
-11.972017
-4.787598
6.619169
18.602442
22.023641
9.597721
-10.828658
-19.770890
-7.261091
14.847009
26.071051
17.382823
-6.370332
-33.860839
-49.930778
-42.933236
-17.103907
10.188115
24.829063
24.303810
13.463678
-1.376647
-14.116470
-20.072880
-20.328159
-20.224690
-18.572600
-8.229471
7.983794
16.959912
14.413467
8.737455
5.266741
1.897709
-0.667821
0.543088
1.811408
-1.863523
-7.056452
-8.624736
-7.671457
-4.471704
5.719180
21.057747
27.954541
18.295852
3.378119
0.423811
11.253343
21.788121
18.956038
2.795031
-16.567155
-28.030535
-24.527956
-7.246550
11.177545
17.256271
13.112660
10.367998
8.957648
-0.252780
-13.861604
-18.783522
-14.390072
-9.770286
-5.127605
3.174640
8.797703
4.575574
-4.293934
-9.104871
-10.652925
-12.961690
-11.631681
0.616623
19.576447
29.567066
20.685543
1.815016
-8.904918
-3.623887
10.548303
20.491972
15.229647
-5.361567
-24.837746
-25.363932
-10.266530
2.746635
5.862800
3.557225
-0.438588
-6.545745
-15.967651
-27.697451
-36.420002
-36.144940
-25.999045
-10.673643
1.111908
1.900007
-4.964946
-10.634347
-16.701370
-28.327100
-37.270706
-31.541404
-11.182885
15.179519
34.206604
31.573880
8.903479
-10.984543
-9.430778
5.887508
16.051825
17.818011
20.516852
25.956684
25.590272
13.029010
-5.810674
-15.365274
-5.994623
15.070333
29.427459
23.799794
7.054225
3.254332
15.754656
19.438884
0.497700
-25.152530
-37.281070
-28.333665
0.090629
36.265574
60.559512
63.447625
53.104673
37.885551
17.596259
-3.072283
-10.920647
0.771321
23.984169
45.649586
58.620333
61.154610
54.921320
44.760610
34.890622
29.260608
32.120466
40.000341
42.830552
38.792451
36.024302
38.580466
41.590235
38.078690
24.840413
6.412610
-7.175298
-12.759841
-19.987720
-37.819220
-60.610864
-76.860191
-83.880984
-84.164322
-80.361512
-79.613784
-87.145671
-95.876778
-91.803197
-66.155123
-25.397614
9.809000
25.183687
21.333600
-3.294248
-48.106276
-86.465367
-83.192718
-40.245596
4.841305
24.128810
18.429875
4.684287
0.355794
0.577390
-22.697949
-75.128653
-117.180557
-109.504828
-54.754745
20.306655
84.647436
95.135441
33.281589
-42.424060
-51.007633
9.449628
67.868760
70.461114
31.918416
3.009670
6.392268
23.668330
35.215635
35.848711
18.609045
-15.085471
-37.820057
-27.923678
-3.354750
12.022347
30.085933
66.717449
98.367966
95.043126
67.030873
38.118297
7.980384
-23.705841
-34.698724
-14.721834
10.875614
20.975062
29.019976
46.640769
54.735990
38.588081
16.545026
8.776827
8.059135
3.800094
5.918984
22.779054
41.330587
45.350362
32.707924
8.748825
-21.395553
-52.344776
-77.085564
-83.810803
-58.639759
-4.577275
47.708443
65.896663
50.730715
24.460269
-13.260099
-77.078504
-143.032201
-165.748621
-137.836270
-73.698988
15.988992
90.403038
97.012629
45.137034
-6.306402
-24.078798
-14.091684
16.988182
70.837380
131.292064
161.004833
136.264123
63.171627
-37.552077
-132.519027
-176.074074
-139.912443
-46.112256
39.336750
66.661565
54.414784
51.780461
63.840507
55.616174
18.185186
-10.481602
-1.445775
16.052519
-4.417772
-46.224839
-44.282337
5.908635
27.073748
-14.925225
-58.603408
-62.443245
-65.101112
-93.691299
-115.713092
-110.845301
-104.405342
-110.012704
-106.805806
-80.750540
-43.026627
-10.872245
8.755519
21.450083
38.281783
59.962921
63.243357
24.313954
-43.351206
-107.378205
-149.033312
-146.968583
-78.763957
36.759739
138.879525
178.576819
154.805018
95.344048
27.931971
-20.168548
-31.589869
-10.526264
36.722040
98.390527
136.333972
118.924287
55.451652
-22.356607
-81.330863
-93.441758
-45.514418
42.542906
107.451860
91.216880
6.770785
-79.562801
-113.253638
-89.811822
-54.315635
-48.554692
-55.227440
-29.828248
23.358556
56.118288
46.335988
10.491089
-30.542658
-52.715735
-37.480310
-2.146045
16.852295
9.671338
-3.580305
-12.101977
-27.153818
-47.998394
-53.596363
-29.399514
19.549471
69.431094
101.417764
119.980868
121.153991
83.975064
12.314618
-55.328344
-74.132928
-25.405745
64.245840
142.277240
163.577180
116.168140
38.627770
-14.813327
-35.331280
-53.707786
-84.814547
-100.797834
-60.091401
30.484122
101.338963
94.824101
29.725997
-30.434712
-46.023030
-28.154799
-17.426297
-33.694793
-48.806964
-32.627421
-4.676290
-0.834848
-20.218739
-44.446403
-72.599733
-102.904642
-117.098233
-105.542485
-71.037460
-13.079951
47.437325
62.410408
18.588236
-41.195393
-74.768276
-68.699453
-21.079174
52.574107
104.637748
90.599475
23.478743
-40.105785
-61.669949
-38.572665
13.081406
68.926952
108.796743
118.982917
91.171836
39.493228
-4.697444
-23.377687
-16.936358
6.583253
34.923337
56.193672
58.657953
31.777054
-16.448045
-53.880284
-53.802867
-22.838676
12.864155
39.888237
57.730414
56.367166
23.639287
-27.483606
-63.365708
-59.204708
-15.395946
49.520577
113.793263
155.834063
159.606315
129.385687
81.140875
23.662722
-32.546555
-65.266544
-57.622914
-18.717245
24.861065
58.355162
81.881021
90.443223
73.633216
27.065298
-36.047213
-80.053800
-80.682397
-57.297460
-39.798641
-29.416458
-17.736951
-8.729538
-6.742268
-8.963106
-4.484320
23.419907
66.077827
80.437142
46.463412
-1.735045
-25.058852
-21.765292
-13.227016
-17.398452
-35.830494
-50.601055
-39.437887
-0.977409
37.836259
42.406105
3.529669
-52.349511
-90.450486
-98.061570
-87.559120
-74.633404
-57.797865
-31.573380
-7.817243
1.342307
3.774022
9.854645
14.816920
10.314218
-3.033392
-22.363811
-47.056668
-70.651567
-84.844363
-90.528725
-88.241419
-72.226316
-49.002907
-35.715563
-31.266172
-22.509646
-14.663256
-19.098827
-30.522392
-42.432295
-54.118814
-57.165789
-44.414968
-20.781424
6.609262
32.841583
52.444538
59.733172
51.503976
35.663603
27.756482
27.663416
16.326664
-14.484037
-42.173281
-32.421113
19.038793
71.993526
84.946215
59.339553
21.581140
-11.603376
-31.047277
-29.205619
-7.998598
22.903254
50.994547
62.340616
51.621936
29.744523
11.844484
1.053654
-7.008177
-11.418932
-10.811430
-7.678866
3.539078
29.953606
55.894251
56.040010
36.347900
28.734781
42.891962
56.524163
53.369812
38.504972
18.469297
-5.255225
-26.943250
-38.484336
-32.580363
-1.439069
49.830043
91.314210
89.793865
40.349867
-31.892364
-92.435836
-117.626011
-107.667542
-81.133338
-50.666689
-11.448143
39.425874
80.519833
78.751140
28.656972
-37.979704
-86.253372
-100.604579
-79.010020
-34.426112
6.153267
26.733671
35.151930
41.233200
38.059391
14.522748
-20.308394
-40.973315
-41.179672
-40.989247
-45.326260
-30.979351
12.353653
64.325581
103.924132
127.033255
130.751939
107.887727
65.615005
25.012044
-4.549787
-25.655952
-31.626614
-14.888874
9.991611
17.809505
4.069250
-11.491090
-9.996437
9.771921
35.433760
49.082439
34.744187
-8.992373
-61.471744
-92.596957
-87.860824
-58.335662
-24.454018
3.527083
25.838727
42.489942
49.374904
42.212646
19.810794
-15.492276
-55.110048
-81.176443
-76.456345
-43.572825
-5.891291
16.379380
23.756120
26.406433
24.323417
10.063476
-13.858177
-34.729565
-45.240208
-47.679236
-42.859671
-26.061992
-0.706272
13.079088
-2.398389
-37.241749
-59.884806
-50.092819
-19.666204
4.554094
13.285919
16.805749
17.220961
4.955487
-14.411298
-20.895501
-9.381454
7.753176
19.801896
22.388546
14.766362
0.065237
-17.194801
-32.273913
-40.855625
-42.061494
-35.188027
-15.688488
16.127786
46.290531
56.647991
43.510414
20.369557
0.366268
-12.206533
-10.897011
10.402215
39.116290
50.129186
33.861564
4.228728
-19.940397
-31.386199
-33.588561
-32.097817
-29.974249
-27.731119
-23.866461
-14.473559
5.178965
32.305991
52.589688
55.841676
50.370711
48.858086
49.769278
46.431999
43.429533
48.281127
53.631877
44.541768
21.419473
0.169307
-9.516706
-12.773060
-15.591615
-12.488226
3.429175
23.315356
31.423046
27.745636
22.718517
16.753459
6.291981
-0.538977
3.783363
9.466477
5.588555
0.641727
7.039529
18.733898
22.324050
16.544101
6.860855
-5.245167
-18.218492
-29.132302
-39.767678
-49.996227
-48.702333
-27.400242
3.389195
24.467291
25.775485
7.350705
-23.045819
-48.096995
-49.699878
-25.544716
5.349672
16.919855
0.018017
-30.080276
-51.349586
-54.588294
-46.189974
-36.903077
-31.261295
-28.806061
-28.533501
-29.388775
-31.778017
-35.526122
-35.450706
-26.415263
-11.384828
0.061477
1.225140
-3.769794
-4.562203
2.749790
12.973219
20.543858
24.446450
24.955364
20.736028
10.749229
-1.865321
-8.345301
0.038887
22.243603
45.895780
56.869455
48.575592
23.741349
-8.209608
-35.749991
-51.027200
-52.387713
-42.301428
-25.355719
-7.331171
7.578906
19.632830
31.770715
43.769839
48.565930
37.929478
15.896777
0.804642
6.470440
28.906943
55.599522
75.511146
78.663579
59.365218
24.042496
-10.206791
-29.296583
-32.192516
-24.489826
-8.574918
12.876300
29.345752
28.739918
12.194277
-6.375031
-17.706735
-21.705462
-14.674049
6.577336
27.330930
27.267555
10.309819
-1.778439
-1.492993
0.053953
-5.714458
-15.714990
-22.441640
-21.612320
-14.409798
-5.964799
-2.476237
-7.036022
-16.376781
-23.714380
-25.101477
-21.996165
-19.057154
-20.156822
-25.576670
-33.008288
-40.429138
-45.964063
-45.968341
-36.340813
-17.043567
4.640543
17.202899
13.827987
-2.200065
-21.573688
-36.098370
-40.979138
-34.650826
-20.785094
-7.149353
2.422688
11.757937
23.408954
30.118663
22.996431
6.159817
-7.153780
-12.049725
-13.266792
-11.057700
-0.254787
16.559301
27.399378
24.682819
12.769210
0.356351
-8.032716
-11.345594
-8.671097
-0.249129
10.477563
18.042198
18.179439
10.934939
0.679707
-8.937462
-17.813411
-23.657083
-19.622269
-4.839112
9.863224
13.917829
7.108410
-5.411384
-18.241780
-25.272023
-24.470668
-21.937257
-22.719585
-22.970500
-18.945017
-14.620871
-13.600763
-13.941484
-14.946175
-18.738450
-23.480382
-24.384918
-23.051004
-27.405955
-39.394954
-50.422340
-52.151502
-43.999276
-28.049279
-6.041016
15.160898
24.295596
18.404671
8.484634
6.140484
10.632262
14.896780
17.000247
17.823938
14.252027
5.141727
-1.048560
5.108028
22.782958
44.741414
64.343642
74.688008
70.224191
53.834970
35.700386
21.069237
5.386656
-14.332313
-31.935227
-41.018387
-41.612510
-33.431698
-13.053334
16.055744
39.242018
44.387034
35.133077
23.101969
12.188346
-0.043279
-9.996642
-8.346652
7.052983
26.238288
38.034261
40.987912
40.436519
39.834263
38.587902
35.766135
32.674368
30.612994
29.249549
29.725433
34.216329
39.361533
36.331117
21.543861
2.441370
-11.312897
-17.672024
-20.379578
-22.821480
-26.040024
-29.890744
-35.681743
-46.479112
-62.677576
-78.743396
-84.879523
-72.526653
-42.455997
-6.867515
20.642051
35.098544
38.935736
36.083791
29.582869
22.536469
19.582132
24.618520
34.512860
39.259543
33.430935
24.082827
23.052959
32.782952
42.191842
39.388268
26.944354
17.250732
15.462804
16.897438
16.765814
12.368447
0.356126
-17.507816
-27.881955
-18.099988
2.386916
7.296946
-13.734669
-41.654849
-53.149647
-45.413472
-29.252587
-10.835783
9.042764
25.833646
33.280612
31.972100
28.186084
25.796732
23.902640
21.488230
20.093140
20.540340
21.153418
21.059984
21.585997
23.746351
26.812697
28.741005
27.166667
21.433736
14.588883
12.989631
21.417000
35.337294
41.151809
30.031287
8.407229
-10.120760
-18.852805
-19.829077
-15.427460
-4.494944
11.278932
23.579286
24.777912
14.307005
-3.349329
-21.295550
-31.547612
-30.284324
-23.445796
-22.104492
-30.734524
-44.953711
-58.928228
-68.519746
-70.103835
-61.551083
-44.955524
-27.869866
-18.674946
-19.720762
-27.565394
-37.791883
-47.475929
-55.280483
-60.071835
-59.774273
-52.310364
-37.496198
-19.155717
-5.095027
-2.008434
-9.945646
-22.636294
-32.357198
-34.462640
-28.457659
-16.954161
-4.973693
2.740940
5.148070
3.274193
-2.582673
-10.804171
-16.600800
-15.326553
-6.910812
4.288921
13.486410
18.037498
17.297763
12.227896
5.127436
-0.825018
-2.474462
0.780830
5.072339
5.417067
1.724228
-0.993057
1.389675
8.191756
16.026501
22.801647
28.338320
31.812473
31.265415
26.576406
20.850850
17.549510
17.220837
18.338005
20.226345
22.606966
23.552661
21.822903
20.454396
23.619856
29.617351
31.688374
27.772000
24.422861
27.523777
34.744862
41.676985
48.748069
56.654875
61.268063
58.166582
47.917029
34.490846
22.006242
13.497384
9.568981
7.599636
4.304814
-0.051694
-1.700272
1.151178
5.270028
6.164319
1.926090
-7.336287
-20.796990
-36.654300
-51.520048
-60.870720
-61.652407
-54.858447
-44.096156
-32.281304
-22.151388
-18.428670
-24.653338
-37.569590
-48.733700
-52.233981
-48.389598
-41.211864
-35.834457
-37.336220
-46.946432
-58.515045
-62.821764
-56.347308
-44.021232
-34.233310
-32.084378
-36.205503
-41.317259
-43.558763
-42.313775
-37.625792
-29.519930
-20.740397
-15.831772
-15.714263
-16.374385
-13.687929
-6.785054
3.217861
14.664295
25.091162
32.317696
36.914861
41.415865
46.033320
48.007187
46.584907
44.841067
44.652804
43.821885
40.178270
35.363354
32.860611
34.221064
38.041576
41.008713
40.019793
35.446927
31.271785
30.025080
